STARLINK-35906          
1 67112U 25299L   25365.91668981 -.01890269  00000+0 -29487-1 0  9990
2 67112  42.9990 199.8015 0001271 271.5334 253.2599 15.56423264  3782
STARLINK-35789          
1 67113U 25299M   25365.91668981 -.01890622  00000+0 -29481-1 0  9998
2 67113  42.9991 199.7964 0001305 272.5815 254.0704 15.56434595  3785
STARLINK-36180          
1 67114U 25299N   25365.91668981 -.01889920  00000+0 -29464-1 0  9999
2 67114  42.9991 199.7918 0001293 273.4346 255.1164 15.56438401  3894
STARLINK-35892          
1 67115U 25299P   25365.91668981 -.01884115  00000+0 -29352-1 0  9997
2 67115  42.9995 199.7869 0001331 274.2936 256.1179 15.56447045  3780
STARLINK-35738          
1 67116U 25299Q   25365.91668981 -.01883406  00000+0 -29340-1 0  9997
2 67116  42.9992 199.7824 0001280 272.6163 259.7072 15.56446952  3783
STARLINK-35674          
1 67117U 25299R   25365.91668981 -.01874532  00000+0 -29180-1 0  9990
2 67117  42.9992 199.7782 0001283 278.3386 255.8650 15.56450026  3685
STARLINK-35701          
1 67118U 25299S   25365.91668981 -.01900064  00000+0 -29608-1 0  9996
2 67118  42.9991 199.7729 0001237 277.5454 258.5422 15.56470424  3841
STARLINK-36179          
1 67119U 25299T   25365.91668981 -.01875381  00000+0 -29148-1 0  9999
2 67119  42.9992 199.7634 0001263 274.0345 265.7081 15.56492630  3897
STARLINK-36217          
1 67120U 25299U   25365.91668981 -.01870921  00000+0 -29096-1 0  9998
2 67120  42.9992 199.7686 0001308 281.8980 256.0360 15.56468800  3892
STARLINK-36124          
1 67121U 25299V   25365.91668981 -.01874842  00000+0 -29125-1 0  9998
2 67121  42.9993 199.7540 0001259 274.9005 268.6116 15.56504947  3890
STARLINK-36188          
1 67122U 25299W   25365.91668981 -.01877563  00000+0 -29154-1 0  9994
2 67122  42.9991 199.7498 0001164 276.3945 268.9570 15.56523881  3890
STARLINK-36151          
1 67123U 25299X   25365.91668981 -.01881968  00000+0 -29252-1 0  9998
2 67123  42.9994 199.7595 0001123 272.6499 268.9701 15.56505070  3896
