CCSDS_OMM_VERS = 2.0
CREATION_DATE  = 
ORIGINATOR     = 

OBJECT_NAME    = STARLINK-35906
OBJECT_ID      = 2025-299L
CENTER_NAME    = EARTH
REF_FRAME      = TEME
TIME_SYSTEM    = UTC
MEAN_ELEMENT_THEORY = SGP/SGP4

EPOCH          = 2025-12-31T22:00:01.999584
MEAN_MOTION    = 15.56423264
ECCENTRICITY   = .0001271
INCLINATION    = 42.9990
RA_OF_ASC_NODE = 199.8015
ARG_OF_PERICENTER = 271.5334
MEAN_ANOMALY   = 253.2599

EPHEMERIS_TYPE = 0
CLASSIFICATION_TYPE = U
NORAD_CAT_ID   = 67112
ELEMENT_SET_NO = 999
REV_AT_EPOCH   = 378
BSTAR          = -.2948735E-1
MEAN_MOTION_DOT = -.1890269E-1
MEAN_MOTION_DDOT = 0

CCSDS_OMM_VERS = 2.0
CREATION_DATE  = 
ORIGINATOR     = 

OBJECT_NAME    = STARLINK-35789
OBJECT_ID      = 2025-299M
CENTER_NAME    = EARTH
REF_FRAME      = TEME
TIME_SYSTEM    = UTC
MEAN_ELEMENT_THEORY = SGP/SGP4

EPOCH          = 2025-12-31T22:00:01.999584
MEAN_MOTION    = 15.56434595
ECCENTRICITY   = .00013056
INCLINATION    = 42.9991
RA_OF_ASC_NODE = 199.7964
ARG_OF_PERICENTER = 272.5815
MEAN_ANOMALY   = 254.0704

EPHEMERIS_TYPE = 0
CLASSIFICATION_TYPE = U
NORAD_CAT_ID   = 67113
ELEMENT_SET_NO = 999
REV_AT_EPOCH   = 378
BSTAR          = -.29480646E-1
MEAN_MOTION_DOT = -.1890622E-1
MEAN_MOTION_DDOT = 0

CCSDS_OMM_VERS = 2.0
CREATION_DATE  = 
ORIGINATOR     = 

OBJECT_NAME    = STARLINK-36180
OBJECT_ID      = 2025-299N
CENTER_NAME    = EARTH
REF_FRAME      = TEME
TIME_SYSTEM    = UTC
MEAN_ELEMENT_THEORY = SGP/SGP4

EPOCH          = 2025-12-31T22:00:01.999584
MEAN_MOTION    = 15.56438401
ECCENTRICITY   = .00012932
INCLINATION    = 42.9991
RA_OF_ASC_NODE = 199.7918
ARG_OF_PERICENTER = 273.4346
MEAN_ANOMALY   = 255.1164

EPHEMERIS_TYPE = 0
CLASSIFICATION_TYPE = U
NORAD_CAT_ID   = 67114
ELEMENT_SET_NO = 999
REV_AT_EPOCH   = 389
BSTAR          = -.29464157E-1
MEAN_MOTION_DOT = -.188992E-1
MEAN_MOTION_DDOT = 0

CCSDS_OMM_VERS = 2.0
CREATION_DATE  = 
ORIGINATOR     = 

OBJECT_NAME    = STARLINK-35892
OBJECT_ID      = 2025-299P
CENTER_NAME    = EARTH
REF_FRAME      = TEME
TIME_SYSTEM    = UTC
MEAN_ELEMENT_THEORY = SGP/SGP4

EPOCH          = 2025-12-31T22:00:01.999584
MEAN_MOTION    = 15.56447045
ECCENTRICITY   = .00013319
INCLINATION    = 42.9995
RA_OF_ASC_NODE = 199.7869
ARG_OF_PERICENTER = 274.2936
MEAN_ANOMALY   = 256.1179

EPHEMERIS_TYPE = 0
CLASSIFICATION_TYPE = U
NORAD_CAT_ID   = 67115
ELEMENT_SET_NO = 999
REV_AT_EPOCH   = 378
BSTAR          = -.29351675E-1
MEAN_MOTION_DOT = -.1884115E-1
MEAN_MOTION_DDOT = 0

CCSDS_OMM_VERS = 2.0
CREATION_DATE  = 
ORIGINATOR     = 

OBJECT_NAME    = STARLINK-35738
OBJECT_ID      = 2025-299Q
CENTER_NAME    = EARTH
REF_FRAME      = TEME
TIME_SYSTEM    = UTC
MEAN_ELEMENT_THEORY = SGP/SGP4

EPOCH          = 2025-12-31T22:00:01.999584
MEAN_MOTION    = 15.56446952
ECCENTRICITY   = .00012805
INCLINATION    = 42.9992
RA_OF_ASC_NODE = 199.7824
ARG_OF_PERICENTER = 272.6163
MEAN_ANOMALY   = 259.7072

EPHEMERIS_TYPE = 0
CLASSIFICATION_TYPE = U
NORAD_CAT_ID   = 67116
ELEMENT_SET_NO = 999
REV_AT_EPOCH   = 378
BSTAR          = -.2933983E-1
MEAN_MOTION_DOT = -.1883406E-1
MEAN_MOTION_DDOT = 0

CCSDS_OMM_VERS = 2.0
CREATION_DATE  = 
ORIGINATOR     = 

OBJECT_NAME    = STARLINK-35674
OBJECT_ID      = 2025-299R
CENTER_NAME    = EARTH
REF_FRAME      = TEME
TIME_SYSTEM    = UTC
MEAN_ELEMENT_THEORY = SGP/SGP4

EPOCH          = 2025-12-31T22:00:01.999584
MEAN_MOTION    = 15.56450026
ECCENTRICITY   = .00012833
INCLINATION    = 42.9992
RA_OF_ASC_NODE = 199.7782
ARG_OF_PERICENTER = 278.3386
MEAN_ANOMALY   = 255.8650

EPHEMERIS_TYPE = 0
CLASSIFICATION_TYPE = U
NORAD_CAT_ID   = 67117
ELEMENT_SET_NO = 999
REV_AT_EPOCH   = 368
BSTAR          = -.29179953E-1
MEAN_MOTION_DOT = -.1874532E-1
MEAN_MOTION_DDOT = 0

CCSDS_OMM_VERS = 2.0
CREATION_DATE  = 
ORIGINATOR     = 

OBJECT_NAME    = STARLINK-35701
OBJECT_ID      = 2025-299S
CENTER_NAME    = EARTH
REF_FRAME      = TEME
TIME_SYSTEM    = UTC
MEAN_ELEMENT_THEORY = SGP/SGP4

EPOCH          = 2025-12-31T22:00:01.999584
MEAN_MOTION    = 15.56470424
ECCENTRICITY   = .00012372
INCLINATION    = 42.9991
RA_OF_ASC_NODE = 199.7729
ARG_OF_PERICENTER = 277.5454
MEAN_ANOMALY   = 258.5422

EPHEMERIS_TYPE = 0
CLASSIFICATION_TYPE = U
NORAD_CAT_ID   = 67118
ELEMENT_SET_NO = 999
REV_AT_EPOCH   = 384
BSTAR          = -.29608446E-1
MEAN_MOTION_DOT = -.1900064E-1
MEAN_MOTION_DDOT = 0

CCSDS_OMM_VERS = 2.0
CREATION_DATE  = 
ORIGINATOR     = 

OBJECT_NAME    = STARLINK-36179
OBJECT_ID      = 2025-299T
CENTER_NAME    = EARTH
REF_FRAME      = TEME
TIME_SYSTEM    = UTC
MEAN_ELEMENT_THEORY = SGP/SGP4

EPOCH          = 2025-12-31T22:00:01.999584
MEAN_MOTION    = 15.56492630
ECCENTRICITY   = .00012633
INCLINATION    = 42.9992
RA_OF_ASC_NODE = 199.7634
ARG_OF_PERICENTER = 274.0345
MEAN_ANOMALY   = 265.7081

EPHEMERIS_TYPE = 0
CLASSIFICATION_TYPE = U
NORAD_CAT_ID   = 67119
ELEMENT_SET_NO = 999
REV_AT_EPOCH   = 389
BSTAR          = -.29148359E-1
MEAN_MOTION_DOT = -.1875381E-1
MEAN_MOTION_DDOT = 0

CCSDS_OMM_VERS = 2.0
CREATION_DATE  = 
ORIGINATOR     = 

OBJECT_NAME    = STARLINK-36217
OBJECT_ID      = 2025-299U
CENTER_NAME    = EARTH
REF_FRAME      = TEME
TIME_SYSTEM    = UTC
MEAN_ELEMENT_THEORY = SGP/SGP4

EPOCH          = 2025-12-31T22:00:01.999584
MEAN_MOTION    = 15.56468800
ECCENTRICITY   = .00013083
INCLINATION    = 42.9992
RA_OF_ASC_NODE = 199.7686
ARG_OF_PERICENTER = 281.8980
MEAN_ANOMALY   = 256.0360

EPHEMERIS_TYPE = 0
CLASSIFICATION_TYPE = U
NORAD_CAT_ID   = 67120
ELEMENT_SET_NO = 999
REV_AT_EPOCH   = 389
BSTAR          = -.29095511E-1
MEAN_MOTION_DOT = -.1870921E-1
MEAN_MOTION_DDOT = 0

CCSDS_OMM_VERS = 2.0
CREATION_DATE  = 
ORIGINATOR     = 

OBJECT_NAME    = STARLINK-36124
OBJECT_ID      = 2025-299V
CENTER_NAME    = EARTH
REF_FRAME      = TEME
TIME_SYSTEM    = UTC
MEAN_ELEMENT_THEORY = SGP/SGP4

EPOCH          = 2025-12-31T22:00:01.999584
MEAN_MOTION    = 15.56504947
ECCENTRICITY   = .00012595
INCLINATION    = 42.9993
RA_OF_ASC_NODE = 199.7540
ARG_OF_PERICENTER = 274.9005
MEAN_ANOMALY   = 268.6116

EPHEMERIS_TYPE = 0
CLASSIFICATION_TYPE = U
NORAD_CAT_ID   = 67121
ELEMENT_SET_NO = 999
REV_AT_EPOCH   = 389
BSTAR          = -.29125418E-1
MEAN_MOTION_DOT = -.1874842E-1
MEAN_MOTION_DDOT = 0

CCSDS_OMM_VERS = 2.0
CREATION_DATE  = 
ORIGINATOR     = 

OBJECT_NAME    = STARLINK-36188
OBJECT_ID      = 2025-299W
CENTER_NAME    = EARTH
REF_FRAME      = TEME
TIME_SYSTEM    = UTC
MEAN_ELEMENT_THEORY = SGP/SGP4

EPOCH          = 2025-12-31T22:00:01.999584
MEAN_MOTION    = 15.56523881
ECCENTRICITY   = .00011642
INCLINATION    = 42.9991
RA_OF_ASC_NODE = 199.7498
ARG_OF_PERICENTER = 276.3945
MEAN_ANOMALY   = 268.9570

EPHEMERIS_TYPE = 0
CLASSIFICATION_TYPE = U
NORAD_CAT_ID   = 67122
ELEMENT_SET_NO = 999
REV_AT_EPOCH   = 389
BSTAR          = -.29153503E-1
MEAN_MOTION_DOT = -.1877563E-1
MEAN_MOTION_DDOT = 0

CCSDS_OMM_VERS = 2.0
CREATION_DATE  = 
ORIGINATOR     = 

OBJECT_NAME    = STARLINK-36151
OBJECT_ID      = 2025-299X
CENTER_NAME    = EARTH
REF_FRAME      = TEME
TIME_SYSTEM    = UTC
MEAN_ELEMENT_THEORY = SGP/SGP4

EPOCH          = 2025-12-31T22:00:01.999584
MEAN_MOTION    = 15.56505070
ECCENTRICITY   = .00011234
INCLINATION    = 42.9994
RA_OF_ASC_NODE = 199.7595
ARG_OF_PERICENTER = 272.6499
MEAN_ANOMALY   = 268.9701

EPHEMERIS_TYPE = 0
CLASSIFICATION_TYPE = U
NORAD_CAT_ID   = 67123
ELEMENT_SET_NO = 999
REV_AT_EPOCH   = 389
BSTAR          = -.29252116E-1
MEAN_MOTION_DOT = -.1881968E-1
MEAN_MOTION_DDOT = 0

